IRIDIUM 39              
1 25042U 97069D   25235.24107835  .00000519  00000+0  13040-3 0  9996
2 25042  86.3970 182.4025 0020180  83.4277 276.9224 14.49286965458678
IRIDIUM 38              
1 25043U 97069E   25235.17293364  .00000344  00000+0  10681-3 0  9996
2 25043  86.3981 204.9802 0001133 145.1779 214.9493 14.38163063455582
IRIDIUM 42              
1 25077U 97077A   25235.19178969  .00000338  00000+0  10884-3 0  9995
2 25077  86.3973 211.2202 0001510  93.4439 266.6931 14.36394883450818
IRIDIUM 44              
1 25078U 97077B   25234.40961408  .00000379  00000+0  11342-3 0  9992
2 25078  86.4002 193.3138 0003128 124.0204 236.1292 14.40286609453231
IRIDIUM 45              
1 25104U 97082A   25235.12562993  .00017863  00000+0  59879-3 0  9997
2 25104  86.3598  15.3261 0113525  80.8201 280.5866 15.24680213462231
IRIDIUM 24              
1 25105U 97082B   25235.19932782  .00000428  00000+0  12396-3 0  9994
2 25105  86.3868  51.8541 0010249 207.0977 152.9690 14.42150379452870
IRIDIUM 51              
1 25262U 98018A   25234.43248669  .00029597  00000+0  57708-3 0  9992
2 25262  86.3822  22.9149 0078271 355.6613   4.3954 15.43996189457230
IRIDIUM 57              
1 25273U 98019B   25233.74678658  .00000237  00000+0  74856-4 0  9997
2 25273  86.3959 117.8020 0002069  88.1131 272.0303 14.35929536434194
